1 45204U 20012AC  23052.52069717  .00004272  00000-0  30544-3 0  9993
2 45204  53.0558 339.3433 0002030  82.8200 277.3019 15.06409147166555
1 45204U 20012AC  23052.78609118  .00026387  00000-0  17830-2 0  9999
2 45204  53.0537 338.1536 0003429  81.3473 278.7904 15.06412783167540
1 45204U 20012AC  23053.05147891  .00023607  00000-0  15988-2 0  9999
2 45204  53.0539 336.9621 0001639  82.0257 278.0917 15.06390185166639
1 45204U 20012AC  23053.18417428  .00031619  00000-0  21325-2 0  9993
2 45204  53.0537 336.3665 0001662  79.0541 281.0635 15.06392798167608
1 45204U 20012AC  23053.91398029  .00030814  00000-0  20764-2 0  9991
2 45204  53.0538 333.0901 0001677  81.9502 278.1678 15.06438401167719
1 45204U 20012AC  23054.17935903  .00035412  00000-0  23806-2 0  9997
2 45204  53.0538 331.8988 0001682  81.1711 278.9468 15.06457623166801
1 45204U 20012AC  23054.77648495  .00010524  00000-0  72423-3 0  9997
2 45204  53.0539 329.2180 0001445  83.5739 276.5415 15.06405372167845
1 45204U 20012AC  23054.90917796  .00017320  00000-0  11787-2 0  9991
2 45204  53.0539 328.6226 0001089 116.1864 243.9237 15.06403160166915
1 45204U 20012AC  23055.10822301  .00023452  00000-0  15884-2 0  9996
2 45204  53.0535 327.7288 0001584 101.4631 258.6536 15.06392623167892
1 45204U 20012AC  23055.10822301  .00023452  00000-0  15884-2 0  9996
2 45204  53.0535 327.7288 0001584 101.4631 258.6536 15.06392623166947
1 45204U 20012AC  23056.16975733  .00022688  00000-0  15353-2 0  9992
2 45204  53.0533 322.9632 0001573 102.7821 257.3343 15.06443630168059
1 45204U 20012AC  23056.16975733  .00022688  00000-0  15353-2 0  9992
2 45204  53.0533 322.9632 0001573 102.7821 257.3343 15.06443630167104
1 45204U 20012AC  23057.09863162  .00020603  00000-0  13989-2 0  9995
2 45204  53.0527 318.7939 0001371  94.2225 265.8920 15.06375629167241
1 45204U 20012AC  23057.23132578  .00027162  00000-0  18362-2 0  9998
2 45204  53.0526 318.1989 0001243 110.1068 250.0055 15.06383463168218
1 45204U 20012AC  23058.09383239  .00026277  00000-0  17753-2 0  9994
2 45204  53.0518 314.3250 0001197 101.1836 258.9288 15.06422821168340
1 45204U 20012AC  23058.09383239  .00026277  00000-0  17753-2 0  9994
2 45204  53.0518 314.3250 0001197 101.1836 258.9288 15.06422821167394
1 45204U 20012AC  23058.95632728  .00030911  00000-0  20822-2 0  9990
2 45204  53.0528 310.4515 0001453  97.2394 262.8761 15.06449938168473
1 45204U 20012AC  23059.08901692  .00017657  00000-0  11999-2 0  9991
2 45204  53.0533 309.8564 0001573  83.5705 276.5463 15.06444354168492
1 45204U 20012AC  23059.08901692  .00017657  00000-0  11999-2 0  9991
2 45204  53.0533 309.8564 0001573  83.5705 276.5463 15.06444354167547
1 45204U 20012AC  23059.95154488 -.00007606  00000-0 -49262-3 0  9990
2 45204  53.0551 305.9854 0001008  87.8231 272.2873 15.06375331168626
1 45204U 20012AC  23060.08424359 -.00003167  00000-0 -19405-3 0  9997
2 45204  53.0532 305.3878 0000723  78.6903 281.4167 15.06364115167694
1 45204U 20012AC  23060.15058997 -.00001290  00000-0 -67762-4 0  9991
2 45204  53.0524 305.0916 0000712  75.4061 284.7006 15.06376027167708
1 45204U 20012AC  23060.88041207  .00012532  00000-0  85889-3 0  9995
2 45204  53.0530 301.8147 0000597  64.8067 295.2984 15.06393189168761
1 45204U 20012AC  23061.07945164  .00020932  00000-0  14196-2 0  9997
2 45204  53.0525 300.9215 0000626  54.6370 305.4677 15.06410248167845
1 45204U 20012AC  23061.80926457  .00010074  00000-0  69406-3 0  9993
2 45204  53.0524 297.6426 0000721  48.6819 311.4232 15.06409948168904
1 45204U 20012AC  23061.80926457  .00010074  00000-0  69406-3 0  9993
2 45204  53.0524 297.6426 0000721  48.6819 311.4232 15.06409948167958
1 45204U 20012AC  23062.07464639  .00015612  00000-0  10639-2 0  9998
2 45204  53.0528 296.4539 0000563  73.8875 286.2176 15.06426352168944
1 45204U 20012AC  23062.07464639  .00015612  00000-0  10639-2 0  9998
2 45204  53.0528 296.4539 0000563  73.8875 286.2176 15.06426352167998
1 45204U 20012AC  23062.93715035  .00016823  00000-0  11448-2 0  9996
2 45204  53.0524 292.5802 0000627  76.2621 283.8438 15.06424779169077
1 45204U 20012AC  23063.06984252  .00012312  00000-0  84352-3 0  9994
2 45204  53.0526 291.9849 0000696  76.5866 283.5201 15.06421477168147
1 45204U 20012AC  23063.60062196  .00004558  00000-0  32469-3 0  9993
2 45204  53.0531 289.6025 0001177 108.7071 251.4046 15.06395540169170
1 45204U 20012AC  23063.60062196  .00004558  00000-0  32469-3 0  9993
2 45204  53.0531 289.6025 0001177 108.7071 251.4046 15.06395540168225
1 45204U 20012AC  23063.99870615  .00013481  00000-0  92225-3 0  9999
2 45204  53.0526 287.8163 0000870 124.3948 235.7124 15.06396129169236
1 45204U 20012AC  23064.92756316  .00008318  00000-0  57653-3 0  9993
2 45204  53.0525 283.6465 0000794  94.8045 265.3035 15.06405080168425
1 45204U 20012AC  23065.85642029  .00006057  00000-0  42513-3 0  9998
2 45204  53.0518 279.4768 0000821  88.9208 271.1875 15.06402630169518
1 45204U 20012AC  23065.85642029  .00006057  00000-0  42513-3 0  9998
2 45204  53.0518 279.4768 0000821  88.9208 271.1875 15.06402630168562
1 45204U 20012AC  23066.85162064  .00009183  00000-0  63437-3 0  9996
2 45204  53.0521 275.0078 0000147  64.0217 296.0787 15.06411089169666
1 45204U 20012AC  23066.98431286  .00008336  00000-0  57766-3 0  9992
2 45204  53.0512 274.4125 0000849  92.5867 267.5219 15.06412636168737
1 45204U 20012AC  23067.58143888  .00002174  00000-0  16477-3 0  9995
2 45204  53.0499 271.7302 0001242  91.1579 268.9552 15.06400227168829
1 45204U 20012AC  23067.84682733  .00001927  00000-0  14823-3 0  9999
2 45204  53.0511 270.5407 0001444  87.4076 272.7078 15.06398807169817
1 45204U 20012AC  23068.84203095  .00006968  00000-0  48616-3 0  9997
2 45204  53.0519 266.0719 0000899  72.2095 287.8992 15.06404812169969
1 45204U 20012AC  23068.84203095  .00006968  00000-0  48616-3 0  9997
2 45204  53.0519 266.0719 0000899  72.2095 287.8992 15.06404812169015
1 45204U 20012AC  23069.24011648  .00000356  00000-0  42798-4 0  9994
2 45204  53.0509 264.2850 0001883  88.4770 271.6435 15.06393080169076
1 45204U 20012AC  23069.90358431  .00001352  00000-0  10967-3 0  9990
2 45204  53.0517 261.3034 0001387  73.4612 286.6529 15.06395789170121
1 45204U 20012AC  23070.56705241  .00001290  00000-0  10546-3 0  9993
2 45204  53.0504 258.3260 0000906  86.6455 273.4638 15.06396489170225
1 45204U 20012AC  23070.56705241  .00001290  00000-0  10546-3 0  9993
2 45204  53.0504 258.3260 0000906  86.6455 273.4638 15.06396489169278
1 45204U 20012AC  23070.69974533  .00002495  00000-0  18631-3 0  9990
2 45204  53.0525 257.7318 0000844  93.9530 266.1556 15.06400150170242
1 45204U 20012AC  23071.49590943  .00002964  00000-0  21782-3 0  9990
2 45204  53.0537 254.1568 0000941 103.1021 257.0073 15.06398422170364
1 45204U 20012AC  23071.82764084  .00004488  00000-0  31991-3 0  9992
2 45204  53.0530 252.6689 0000775  87.9586 272.1492 15.06406535169461
1 45204U 20012AC  23071.89398853  .00006632  00000-0  46365-3 0  9990
2 45204  53.0527 252.3707 0000836  86.7683 273.3402 15.06405831170428
1 45204U 20012AC  23072.49112528 -.00002172  00000-0 -12702-3 0  9995
2 45204  53.0530 249.6897 0001125  78.2763 281.8352 15.06381852170512
1 45204U 20012AC  23072.49112528 -.00002172  00000-0 -12702-3 0  9995
2 45204  53.0530 249.6897 0001125  78.2763 281.8352 15.06381852169565
1 45204U 20012AC  23072.88921212  .00000945  00000-0  82351-4 0  9998
2 45204  53.0521 247.9014 0000680  94.4261 265.6805 15.06374584170575
1 45204U 20012AC  23073.48633753  .00006487  00000-0  45407-3 0  9992
2 45204  53.0529 245.2213 0000696  61.1444 298.9615 15.06392358170663
1 45204U 20012AC  23073.75172319  .00016720  00000-0  11384-2 0  9995
2 45204  53.0523 244.0301 0001193  67.9234 292.1881 15.06409522170704
1 45204U 20012AC  23073.75172319  .00016720  00000-0  11384-2 0  9995
2 45204  53.0523 244.0301 0001193  67.9234 292.1881 15.06409522169757
1 45204U 20012AC  23074.48154026  .00007330  00000-0  51037-3 0  9998
2 45204  53.0520 240.7541 0000936  20.5943 339.5083 15.06406004170810
1 45204U 20012AC  23074.48154026  .00007330  00000-0  51037-3 0  9998
2 45204  53.0520 240.7541 0000936  20.5943 339.5083 15.06406004169863
1 45204U 20012AC  23074.87962135  .00002449  00000-0  18325-3 0  9998
2 45204  53.0519 238.9675 0001303  75.5076 284.6057 15.06396823170875
1 45204U 20012AC  23075.41038913  .00013219  00000-0  90407-3 0  9995
2 45204  53.0533 236.5842 0000711  61.0522 299.0538 15.06423759170951
1 45204U 20012AC  23075.80846124  .00016243  00000-0  11057-2 0  9992
2 45204  53.0516 234.7976 0001296  67.0981 293.0145 15.06437128171015
1 45204U 20012AC  23075.80846124  .00016243  00000-0  11057-2 0  9992
2 45204  53.0516 234.7976 0001296  67.0981 293.0145 15.06437128170069
1 45204U 20012AC  23076.14019910 -.00006549  00000-0 -42112-3 0  9992
2 45204  53.0504 233.3076 0002085  80.0744 280.0480 15.06403244170117
1 45204U 20012AC  23076.47193603 -.00012294  00000-0 -80816-3 0  9997
2 45204  53.0519 231.8187 0001235  82.6001 277.5128 15.06385753170168
1 45204U 20012AC  23076.60463061 -.00004940  00000-0 -31304-3 0  9997
2 45204  53.0518 231.2231 0001165  83.2960 276.8161 15.06389833171134
1 45204U 20012AC  23076.60463061 -.00004940  00000-0 -31304-3 0  9997
2 45204  53.0518 231.2231 0001165  83.2960 276.8161 15.06389833170188
1 45204U 20012AC  23077.40080099  .00021233  00000-0  14399-2 0  9998
2 45204  53.0516 227.6488 0001182  87.5660 272.5464 15.06403559170307
1 45204U 20012AC  23077.79887600  .00024019  00000-0  16247-2 0  9992
2 45204  53.0517 225.8627 0001063  81.5010 278.6099 15.06426437171317
1 45204U 20012AC  23078.13061315  .00006671  00000-0  46621-3 0  9992
2 45204  53.0519 224.3743 0001370  83.5598 276.5547 15.06406656170412
1 45204U 20012AC  23078.39600174  .00010503  00000-0  72271-3 0  9991
2 45204  53.0521 223.1816 0001995  86.5752 273.5465 15.06411979171401
1 45204U 20012AC  23078.79408284  .00026007  00000-0  17582-2 0  9992
2 45204  53.0520 221.3945 0001029  93.7450 266.3656 15.06404403171468
